1 27424U 02022A   12047.68783024 +.00000568 +00000-0 +13609-3 0 02160
2 27424 098.2222 349.9097 0001353 088.4797 271.6554 14.57101058520674